0 FENGYUN 1C DEB
1 31830U 99025CHU 13283.20670152  .00000905  00000-0  92683-3 0  7083
2 31830 099.1232 171.1007 0206507 185.4106 337.9967 13.70008423317693
0 FENGYUN 1C DEB
1 31830U 99025CHU 13285.66247499  .00000973  00000-0  99333-3 0  7094
2 31830 099.1232 173.4311 0206575 178.8947 210.0467 13.70012337318034
0 FENGYUN 1C DEB
1 31830U 99025CHU 13288.17071766  .00001356  00000-0  13681-2 0  7104
2 31830 099.1231 175.8113 0206678 172.2420 340.9177 13.70019118318379
0 FENGYUN 1C DEB
1 31830U 99025CHU 13290.62846275  .00001264  00000-0  12775-2 0  7114
2 31830 099.1227 178.1438 0206800 165.7201 222.7925 13.70025513318713
0 FENGYUN 1C DEB
1 31830U 99025CHU 13292.67360368  .00001350  00000-0  13607-2 0  7127
2 31830 099.1230 180.0847 0206935 160.3086 229.6873 13.70030164318990
0 FENGYUN 1C DEB
1 31830U 99025CHU 13295.18112447  .00001426  00000-0  14344-2 0  7133
2 31830 099.1233 182.4642 0207123 153.6712 357.1541 13.70037563319331
